start=new Date('2022-04-25T00:00:00.000Z').valueOf();
sats=[{"OBJECT_NAME":"STARLINK-2444","EPOCH":"2022-04-24T11:12:19.308960","MEAN_ELEMENT_THEORY":"SGP4","APOAPSIS":"548.137","MEAN_MOTION_DOT":"0.00001984","CLASSIFICATION_TYPE":"U","INCLINATION":"53.0566","COUNTRY_CODE":"US","MEAN_ANOMALY":"286.5731","GP_ID":"201935137","BSTAR":"0.00015201000000","NORAD_CAT_ID":"48108","ARG_OF_PERICENTER":"73.5405","RCS_SIZE":"LARGE","CENTER_NAME":"EARTH","REF_FRAME":"TEME","MEAN_MOTION_DDOT":"0.0000000000000","ELEMENT_SET_NO":"999","PERIAPSIS":"546.274","REV_AT_EPOCH":"5924","DECAY_DATE":null,"LAUNCH_DATE":"2021-04-07","EPHEMERIS_TYPE":"0","OBJECT_ID":"2021-027S","TLE_LINE2":"2 48108  53.0566  34.8060 0001345  73.5405 286.5731 15.06402600 59242","ECCENTRICITY":"0.00013450","SITE":"AFETR","MEAN_MOTION":"15.06402600","PERIOD":"95.592","TIME_SYSTEM":"UTC","TLE_LINE1":"1 48108U 21027S   22114.46689015  .00001984  00000-0  15201-3 0  9996","FILE":"3414186","RA_OF_ASC_NODE":"34.8060","SEMIMAJOR_AXIS":"6925.341","OBJECT_TYPE":"PAYLOAD"},{"OBJECT_TYPE":"PAYLOAD","SEMIMAJOR_AXIS":"6925.346","RA_OF_ASC_NODE":"45.9352","TLE_LINE1":"1 48109U 21027T   22114.21532612  .00002070  00000-0  15785-3 0  9994","FILE":"3414186","TIME_SYSTEM":"UTC","PERIOD":"95.592","SITE":"AFETR","MEAN_MOTION":"15.06400822","ECCENTRICITY":"0.00014790","OBJECT_ID":"2021-027T","TLE_LINE2":"2 48109  53.0580  45.9352 0001479  59.6422 300.4713 15.06400822 59079","LAUNCH_DATE":"2021-04-07","EPHEMERIS_TYPE":"0","REV_AT_EPOCH":"5907","DECAY_DATE":null,"PERIAPSIS":"546.187","MEAN_MOTION_DDOT":"0.0000000000000","ELEMENT_SET_NO":"999","REF_FRAME":"TEME","RCS_SIZE":"LARGE","CENTER_NAME":"EARTH","NORAD_CAT_ID":"48109","ARG_OF_PERICENTER":"59.6422","GP_ID":"201935389","BSTAR":"0.00015785000000","COUNTRY_CODE":"US","MEAN_ANOMALY":"300.4713","INCLINATION":"53.0580","CLASSIFICATION_TYPE":"U","MEAN_MOTION_DOT":"0.00002070","APOAPSIS":"548.235","EPOCH":"2022-04-24T05:10:04.176768","MEAN_ELEMENT_THEORY":"SGP4","OBJECT_NAME":"STARLINK-2445"},{"COUNTRY_CODE":"US","MEAN_ANOMALY":"286.1318","INCLINATION":"53.0567","CLASSIFICATION_TYPE":"U","MEAN_MOTION_DOT":"0.00000287","APOAPSIS":"548.207","EPOCH":"2022-04-24T04:34:14.695968","MEAN_ELEMENT_THEORY":"SGP4","OBJECT_NAME":"STARLINK-2447","PERIAPSIS":"546.238","ELEMENT_SET_NO":"999","MEAN_MOTION_DDOT":"0.0000000000000","REF_FRAME":"TEME","RCS_SIZE":"LARGE","CENTER_NAME":"EARTH","ARG_OF_PERICENTER":"73.9827","NORAD_CAT_ID":"48110","GP_ID":"201936139","BSTAR":"0.00003819700000","SITE":"AFETR","MEAN_MOTION":"15.06397058","ECCENTRICITY":"0.00014210","OBJECT_ID":"2021-027U","TLE_LINE2":"2 48110  53.0567  36.0489 0001421  73.9827 286.1318 15.06397058 59216","LAUNCH_DATE":"2021-04-07","EPHEMERIS_TYPE":"0","REV_AT_EPOCH":"5921","DECAY_DATE":null,"OBJECT_TYPE":"PAYLOAD","SEMIMAJOR_AXIS":"6925.358","RA_OF_ASC_NODE":"36.0489","TLE_LINE1":"1 48110U 21027U   22114.19044787  .00000287  00000-0  38197-4 0  9995","FILE":"3414186","TIME_SYSTEM":"UTC","PERIOD":"95.592"},{"MEAN_MOTION_DOT":"0.00000090","APOAPSIS":"548.149","MEAN_ELEMENT_THEORY":"SGP4","EPOCH":"2022-04-24T06:03:07.193376","OBJECT_NAME":"STARLINK-2448","COUNTRY_CODE":"US","MEAN_ANOMALY":"283.0149","INCLINATION":"53.0568","CLASSIFICATION_TYPE":"U","REF_FRAME":"TEME","RCS_SIZE":"LARGE","CENTER_NAME":"EARTH","ARG_OF_PERICENTER":"77.0989","NORAD_CAT_ID":"48111","GP_ID":"201934388","BSTAR":"0.00002490500000","PERIAPSIS":"546.304","ELEMENT_SET_NO":"999","MEAN_MOTION_DDOT":"0.0000000000000","TLE_LINE2":"2 48111  53.0568  35.7709 0001332  77.0989 283.0149 15.06395744 59223","OBJECT_ID":"2021-027V","LAUNCH_DATE":"2021-04-07","EPHEMERIS_TYPE":"0","DECAY_DATE":null,"REV_AT_EPOCH":"5922","MEAN_MOTION":"15.06395744","SITE":"AFETR","ECCENTRICITY":"0.00013320","TIME_SYSTEM":"UTC","PERIOD":"95.592","OBJECT_TYPE":"PAYLOAD","SEMIMAJOR_AXIS":"6925.362","RA_OF_ASC_NODE":"35.7709","FILE":"3414186","TLE_LINE1":"1 48111U 21027V   22114.25216659  .00000090  00000-0  24905-4 0  9996"},{"PERIOD":"95.592","TIME_SYSTEM":"UTC","RA_OF_ASC_NODE":"48.1955","FILE":"3414326","TLE_LINE1":"1 48112U 21027W   22114.82394337  .00003529  00000-0  25563-3 0  9990","OBJECT_TYPE":"PAYLOAD","SEMIMAJOR_AXIS":"6925.332","LAUNCH_DATE":"2021-04-07","EPHEMERIS_TYPE":"0","DECAY_DATE":null,"REV_AT_EPOCH":"5869","TLE_LINE2":"2 48112  53.0551  48.1955 0001727  65.8436 294.2733 15.06405466 58693","OBJECT_ID":"2021-027W","ECCENTRICITY":"0.00017270","MEAN_MOTION":"15.06405466","SITE":"AFETR","NORAD_CAT_ID":"48112","ARG_OF_PERICENTER":"65.8436","GP_ID":"201941659","BSTAR":"0.00025563000000","REF_FRAME":"TEME","RCS_SIZE":"LARGE","CENTER_NAME":"EARTH","PERIAPSIS":"546.001","ELEMENT_SET_NO":"999","MEAN_MOTION_DDOT":"0.0000000000000","MEAN_ELEMENT_THEORY":"SGP4","EPOCH":"2022-04-24T19:46:28.707168","OBJECT_NAME":"STARLINK-2449","MEAN_MOTION_DOT":"0.00003529","APOAPSIS":"548.393","CLASSIFICATION_TYPE":"U","MEAN_ANOMALY":"294.2733","COUNTRY_CODE":"US","INCLINATION":"53.0551"},{"CLASSIFICATION_TYPE":"U","COUNTRY_CODE":"US","MEAN_ANOMALY":"292.0606","INCLINATION":"53.0550","EPOCH":"2022-04-24T12:14:41.906400","MEAN_ELEMENT_THEORY":"SGP4","OBJECT_NAME":"STARLINK-2450","MEAN_MOTION_DOT":"-0.00000897","APOAPSIS":"548.401","PERIAPSIS":"546.039","MEAN_MOTION_DDOT":"0.0000000000000","ELEMENT_SET_NO":"999","ARG_OF_PERICENTER":"68.0564","NORAD_CAT_ID":"48113","GP_ID":"201935889","BSTAR":"-0.00004134600000","REF_FRAME":"TEME","CENTER_NAME":"EARTH","RCS_SIZE":"LARGE","ECCENTRICITY":"0.00017050","SITE":"AFETR","MEAN_MOTION":"15.06397962","EPHEMERIS_TYPE":"0","LAUNCH_DATE":"2021-04-07","REV_AT_EPOCH":"5910","DECAY_DATE":null,"OBJECT_ID":"2021-027X","TLE_LINE2":"2 48113  53.0550  44.6099 0001705  68.0564 292.0606 15.06397962 59109","RA_OF_ASC_NODE":"44.6099","TLE_LINE1":"1 48113U 21027X   22114.51020725 -.00000897  00000-0 -41346-4 0  9999","FILE":"3414186","OBJECT_TYPE":"PAYLOAD","SEMIMAJOR_AXIS":"6925.355","PERIOD":"95.592","TIME_SYSTEM":"UTC"},{"SEMIMAJOR_AXIS":"6925.337","OBJECT_TYPE":"PAYLOAD","FILE":"3414343","TLE_LINE1":"1 48114U 21027Y   22114.20562838  .00001312  00000-0  10695-3 0  9995","RA_OF_ASC_NODE":"40.9859","TIME_SYSTEM":"UTC","PERIOD":"95.592","MEAN_MOTION":"15.06403681","SITE":"AFETR","ECCENTRICITY":"0.00013770","TLE_LINE2":"2 48114  53.0566  40.9859 0001377  81.9158 278.1987 15.06403681 58740","OBJECT_ID":"2021-027Y","DECAY_DATE":null,"REV_AT_EPOCH":"5874","LAUNCH_DATE":"2021-04-07","EPHEMERIS_TYPE":"0","MEAN_MOTION_DDOT":"0.0000000000000","ELEMENT_SET_NO":"999","PERIAPSIS":"546.249","RCS_SIZE":"LARGE","CENTER_NAME":"EARTH","REF_FRAME":"TEME","BSTAR":"0.00010695000000","GP_ID":"201941972","ARG_OF_PERICENTER":"81.9158","NORAD_CAT_ID":"48114","INCLINATION":"53.0566","COUNTRY_CODE":"US","MEAN_ANOMALY":"278.1987","CLASSIFICATION_TYPE":"U","APOAPSIS":"548.156","MEAN_MOTION_DOT":"0.00001312","OBJECT_NAME":"STARLINK-2451","EPOCH":"2022-04-24T04:56:06.292032","MEAN_ELEMENT_THEORY":"SGP4"},{"MEAN_ANOMALY":"280.4446","COUNTRY_CODE":"US","INCLINATION":"53.0557","CLASSIFICATION_TYPE":"U","MEAN_MOTION_DOT":"0.00001183","APOAPSIS":"548.217","EPOCH":"2022-04-24T11:58:44.833728","MEAN_ELEMENT_THEORY":"SGP4","OBJECT_NAME":"STARLINK-2452","PERIAPSIS":"546.194","MEAN_MOTION_DDOT":"0.0000000000000","ELEMENT_SET_NO":"999","REF_FRAME":"TEME","CENTER_NAME":"EARTH","RCS_SIZE":"LARGE","ARG_OF_PERICENTER":"79.6707","NORAD_CAT_ID":"48115","BSTAR":"0.00009830000000","GP_ID":"201934888","MEAN_MOTION":"15.06402647","SITE":"AFETR","ECCENTRICITY":"0.00014600","TLE_LINE2":"2 48115  53.0557  34.6666 0001460  79.6707 280.4446 15.06402647 59258","OBJECT_ID":"2021-027Z","LAUNCH_DATE":"2021-04-07","EPHEMERIS_TYPE":"0","DECAY_DATE":null,"REV_AT_EPOCH":"5925","OBJECT_TYPE":"PAYLOAD","SEMIMAJOR_AXIS":"6925.340","RA_OF_ASC_NODE":"34.6666","FILE":"3414186","TLE_LINE1":"1 48115U 21027Z   22114.49913002  .00001183  00000-0  98300-4 0  9996","TIME_SYSTEM":"UTC","PERIOD":"95.592"},{"TIME_SYSTEM":"UTC","PERIOD":"95.592","SEMIMAJOR_AXIS":"6925.324","OBJECT_TYPE":"PAYLOAD","TLE_LINE1":"1 48116U 21027AA  22114.50651453  .00008569  00000-0  59331-3 0  9993","FILE":"3414186","RA_OF_ASC_NODE":"44.6108","OBJECT_ID":"2021-027AA","TLE_LINE2":"2 48116  53.0544  44.6108 0001268  67.5719 292.5405 15.06408167 59119","REV_AT_EPOCH":"5911","DECAY_DATE":null,"LAUNCH_DATE":"2021-04-07","EPHEMERIS_TYPE":"0","SITE":"AFETR","MEAN_MOTION":"15.06408167","ECCENTRICITY":"0.00012680","RCS_SIZE":"LARGE","CENTER_NAME":"EARTH","REF_FRAME":"TEME","BSTAR":"0.00059331000000","GP_ID":"201935138","NORAD_CAT_ID":"48116","ARG_OF_PERICENTER":"67.5719","MEAN_MOTION_DDOT":"0.0000000000000","ELEMENT_SET_NO":"999","PERIAPSIS":"546.310","APOAPSIS":"548.067","MEAN_MOTION_DOT":"0.00008569","OBJECT_NAME":"STARLINK-2454","MEAN_ELEMENT_THEORY":"SGP4","EPOCH":"2022-04-24T12:09:22.855392","INCLINATION":"53.0544","COUNTRY_CODE":"US","MEAN_ANOMALY":"292.5405","CLASSIFICATION_TYPE":"U"},{"MEAN_MOTION":"15.06407231","SITE":"AFETR","ECCENTRICITY":"0.00014510","TLE_LINE2":"2 48117  53.0567  24.7501 0001451  84.2838 275.8317 15.06407231 59390","OBJECT_ID":"2021-027AB","EPHEMERIS_TYPE":"0","LAUNCH_DATE":"2021-04-07","DECAY_DATE":null,"REV_AT_EPOCH":"5939","OBJECT_TYPE":"PAYLOAD","SEMIMAJOR_AXIS":"6925.326","RA_OF_ASC_NODE":"24.7501","FILE":"3414186","TLE_LINE1":"1 48117U 21027AB  22114.47887483  .00005201  00000-0  36772-3 0  9998","TIME_SYSTEM":"UTC","PERIOD":"95.592","COUNTRY_CODE":"US","MEAN_ANOMALY":"275.8317","INCLINATION":"53.0567","CLASSIFICATION_TYPE":"U","MEAN_MOTION_DOT":"0.00005201","APOAPSIS":"548.196","EPOCH":"2022-04-24T11:29:34.785312","MEAN_ELEMENT_THEORY":"SGP4","OBJECT_NAME":"STARLINK-2455","PERIAPSIS":"546.187","ELEMENT_SET_NO":"999","MEAN_MOTION_DDOT":"0.0000000000000","REF_FRAME":"TEME","RCS_SIZE":"LARGE","CENTER_NAME":"EARTH","NORAD_CAT_ID":"48117","ARG_OF_PERICENTER":"84.2838","GP_ID":"201935390","BSTAR":"0.00036772000000"}];
